[{"OBJECT_NAME":"STARLINK-35795","OBJECT_ID":"2025-254X","EPOCH":"2026-03-09T22:00:01.999584","MEAN_MOTION":15.30165131,"ECCENTRICITY":0.00011963,"INCLINATION":53.1563,"RA_OF_ASC_NODE":229.1693,"ARG_OF_PERICENTER":79.1171,"MEAN_ANOMALY":194.0696,"EPHEMERIS_TYPE":0,"CLASSIFICATION_TYPE":"U","NORAD_CAT_ID":66369,"ELEMENT_SET_NO":999,"REV_AT_EPOCH":586,"BSTAR":0.0021030345,"MEAN_MOTION_DOT":0.00062383,"MEAN_MOTION_DDOT":0},{"OBJECT_NAME":"COSMOS 2251 DEB","OBJECT_ID":"1993-036BN","EPOCH":"2026-03-09T17:54:27.582912","MEAN_MOTION":15.31852549,"ECCENTRICITY":0.0043021,"INCLINATION":74.0291,"RA_OF_ASC_NODE":318.0178,"ARG_OF_PERICENTER":323.0874,"MEAN_ANOMALY":36.7369,"EPHEMERIS_TYPE":0,"CLASSIFICATION_TYPE":"U","NORAD_CAT_ID":33821,"ELEMENT_SET_NO":999,"REV_AT_EPOCH":76330,"BSTAR":0.0011195846,"MEAN_MOTION_DOT":0.00035571,"MEAN_MOTION_DDOT":0}]
